1 40129U 14050B   21003.63405600 -.00000074  00000-0  00000-0 0  9998
2 40129  50.5641 352.4344 1650485 106.7242 272.0303  1.85519970 43554
1 40129U 14050B   21004.17305362 -.00000075  00000-0  00000+0 0  9992
2 40129  50.5639 352.4129 1650462 106.7416 272.0102  1.85519985 43531
1 40129U 14050B   21004.17305386 -.00000075  00000-0  00000-0 0  9999
2 40129  50.5639 352.4129 1650457 106.7415 272.0102  1.85519970 43561
1 40129U 14050B   21005.25105328 -.00000079  00000-0  00000-0 0  9997
2 40129  50.5636 352.3700 1650401 106.7764 271.9705  1.85519893 43581
1 40129U 14050B   21006.32905211 -.00000084  00000-0  00000+0 0  9990
2 40129  50.5633 352.3270 1650345 106.8111 271.9321  1.85519890 43574
1 40129U 14050B   21006.32905211 -.00000084  00000-0  00000-0 0  9991
2 40129  50.5633 352.3270 1650345 106.8111 271.9321  1.85519890 43608
1 40129U 14050B   21006.86805241 -.00000087  00000-0  00000-0 0  9995
2 40129  50.5631 352.3056 1650320 106.8284 271.9133  1.85519886 43619
1 40129U 14050B   21007.40705311 -.00000091  00000-0  00000-0 0  9998
2 40129  50.5629 352.2841 1650290 106.8457 271.8947  1.85519869 43629
1 40129U 14050B   21011.18005550 -.00000111  00000-0  00000+0 0  9998
2 40129  50.5617 352.1338 1650098 106.9667 271.7622  1.85519857 43666
1 40129U 14050B   21011.18005550 -.00000111  00000-0  00000-0 0  9999
2 40129  50.5617 352.1338 1650098 106.9667 271.7622  1.85519857 43699
1 40129U 14050B   21011.71905663 -.00000113  00000-0  00000-0 0  9994
2 40129  50.5616 352.1124 1650072 106.9840 271.7423  1.85519796 43709
1 40129U 14050B   21012.25805168 -.00000114  00000-0  00000-0 0  9994
2 40129  50.5615 352.0909 1650047 107.0012 271.7223  1.85519917 43717
1 40129U 14050B   21012.25805225 -.00000114  00000-0  00000-0 0  9998
2 40129  50.5615 352.0909 1650043 107.0007 271.7228  1.85519903 43717
1 40129U 14050B   21013.33604937 -.00000115  00000-0  00000+0 0  9995
2 40129  50.5611 352.0480 1649998 107.0356 271.6817  1.85519896 43704
1 40129U 14050B   21013.33604937 -.00000115  00000-0  00000-0 0  9996
2 40129  50.5611 352.0480 1649998 107.0356 271.6817  1.85519896 43737
1 40129U 14050B   21014.41404487 -.00000115  00000-0  00000-0 0  9994
2 40129  50.5608 352.0050 1649947 107.0703 271.6407  1.85519934 43756
1 40129U 14050B   21014.95304215 -.00000115  00000-0  00000-0 0  9991
2 40129  50.5607 351.9835 1649920 107.0877 271.6201  1.85519970 43760
1 40129U 14050B   21015.49204186 -.00000115  00000-0  00000+0 0  9996
2 40129  50.5605 351.9621 1649893 107.1049 271.6000  1.85519941 43745
1 40129U 14050B   21015.49204186 -.00000115  00000-0  00000-0 0  9997
2 40129  50.5605 351.9621 1649893 107.1049 271.6000  1.85519941 43778
1 40129U 14050B   21016.03103955 -.00000114  00000-0  00000-0 0  9999
2 40129  50.5603 351.9407 1649862 107.1222 271.5799  1.85519980 43785
1 40129U 14050B   21017.10903930 -.00000114  00000-0  00000-0 0  9999
2 40129  50.5601 351.8977 1649808 107.1569 271.5404  1.85519969 43801
1 40129U 14050B   21018.18703735 -.00000114  00000-0  00000+0 0  9998
2 40129  50.5597 351.8549 1649752 107.1913 271.5023  1.85520051 43790
1 40129U 14050B   21018.18703735 -.00000114  00000-0  00000-0 0  9999
2 40129  50.5597 351.8549 1649752 107.1913 271.5023  1.85520051 43824
1 40129U 14050B   21019.26503985 -.00000114  00000-0  00000-0 0  9994
2 40129  50.5594 351.8120 1649704 107.2254 271.4656  1.85520046 43849
1 40129U 14050B   21020.34305024 -.00000113  00000-0  00000+0 0  9997
2 40129  50.5591 351.7691 1649665 107.2588 271.4306  1.85519837 43831
1 40129U 14050B   21020.34305024 -.00000113  00000-0  00000-0 0  9998
2 40129  50.5591 351.7691 1649665 107.2588 271.4306  1.85519837 43864
1 40129U 14050B   21022.49904585 -.00000108  00000-0  00000+0 0  9996
2 40129  50.5585 351.6833 1649578 107.3271 271.3599  1.85520207 43874
1 40129U 14050B   21022.49904585 -.00000108  00000-0  00000-0 0  9997
2 40129  50.5585 351.6833 1649578 107.3271 271.3599  1.85520207 43908
1 40129U 14050B   21023.03805109 -.00000106  00000-0  00000-0 0  9998
2 40129  50.5583 351.6619 1649548 107.3446 271.3417  1.85520080 43918
1 40129U 14050B   21023.03805144 -.00000106  00000-0  00000-0 0  9997
2 40129  50.5583 351.6620 1649550 107.3443 271.3420  1.85520075 43918
1 40129U 14050B   21025.19405954 -.00000097  00000-0  00000+0 0  9999
2 40129  50.5576 351.5762 1649448 107.4132 271.2685  1.85519911 43928
1 40129U 14050B   21025.19405954 -.00000097  00000-0  00000-0 0  9990
2 40129  50.5576 351.5762 1649448 107.4132 271.2685  1.85519911 43951
1 40129U 14050B   21026.27205802 -.00000091  00000-0  00000-0 0  9994
2 40129  50.5573 351.5334 1649404 107.4473 271.2306  1.85519932 43978
1 40129U 14050B   21027.88905548 -.00000084  00000-0  00000+0 0  9997
2 40129  50.5567 351.4691 1649344 107.4987 271.1715  1.85519869 43971
1 40129U 14050B   21027.88905548 -.00000084  00000-0  00000-0 0  9998
2 40129  50.5567 351.4691 1649344 107.4987 271.1715  1.85519869 44006
1 40129U 14050B   21028.96705307 -.00000080  00000-0  00000-0 0  9995
2 40129  50.5564 351.4262 1649308 107.5330 271.1312  1.85519808 44028
1 40129U 14050B   21031.12304696 -.00000078  00000-0  00000+0 0  9999
2 40129  50.5556 351.3405 1649241 107.6015 271.0501  1.85519730 44038
1 40129U 14050B   21031.12304696 -.00000078  00000-0  00000-0 0  9990
2 40129  50.5556 351.3405 1649241 107.6015 271.0501  1.85519730 44061
1 40129U 14050B   21032.20104445 -.00000080  00000-0  00000-0 0  9993
2 40129  50.5553 351.2975 1649189 107.6367 271.0093  1.85519703 44088
1 40129U 14050B   21033.27904408 -.00000085  00000-0  00000+0 0  9992
2 40129  50.5549 351.2546 1649184 107.6697 270.9724  1.85519708 44071
1 40129U 14050B   21033.27904408 -.00000085  00000-0  00000-0 0  9993
2 40129  50.5549 351.2546 1649184 107.6697 270.9724  1.85519708 44105
1 40129U 14050B   21033.81804535 -.00000088  00000-0  00000-0 0  9996
2 40129  50.5547 351.2331 1649164 107.6876 270.9527  1.85519670 44112
1 40129U 14050B   21035.97405253 -.00000101  00000-0  00000+0 0  9994
2 40129  50.5539 351.1472 1649099 107.7565 270.8780  1.85519566 44126
1 40129U 14050B   21035.97405253 -.00000101  00000-0  00000-0 0  9995
2 40129  50.5539 351.1472 1649099 107.7565 270.8780  1.85519566 44159
1 40129U 14050B   21037.05205424 -.00000107  00000-0  00000-0 0  9990
2 40129  50.5535 351.1043 1649062 107.7911 270.8402  1.85519583 44176
1 40129U 14050B   21038.13005461 -.00000112  00000-0  00000+0 0  9994
2 40129  50.5531 351.0614 1649024 107.8257 270.8014  1.85519607 44162
1 40129U 14050B   21038.13005461 -.00000112  00000-0  00000-0 0  9995
2 40129  50.5531 351.0614 1649024 107.8257 270.8014  1.85519607 44195
1 40129U 14050B   21039.20805417 -.00000115  00000-0  00000-0 0  9996
2 40129  50.5528 351.0184 1648985 107.8608 270.7611  1.85519610 44217
1 40129U 14050B   21040.28605187 -.00000116  00000-0  00000+0 0  9998
2 40129  50.5524 350.9755 1648951 107.8956 270.7203  1.85519642 44205
1 40129U 14050B   21040.28605187 -.00000116  00000-0  00000-0 0  9999
2 40129  50.5524 350.9755 1648951 107.8956 270.7203  1.85519642 44238
1 40129U 14050B   21041.36404928 -.00000116  00000-0  00000-0 0  9999
2 40129  50.5520 350.9326 1648938 107.9295 270.6804  1.85519689 44259
1 40129U 14050B   21042.44204691 -.00000116  00000-0  00000+0 0  9993
2 40129  50.5516 350.8897 1648906 107.9641 270.6396  1.85519724 44241
1 40129U 14050B   21042.44204691 -.00000116  00000-0  00000-0 0  9994
2 40129  50.5516 350.8897 1648906 107.9641 270.6396  1.85519724 44274
1 40129U 14050B   21042.98104745 -.00000116  00000-0  00000-0 0  9992
2 40129  50.5514 350.8682 1648915 107.9804 270.6208  1.85519729 44283
1 40129U 14050B   21044.05904719 -.00000116  00000-0  00000-0 0  9991
2 40129  50.5510 350.8253 1648882 108.0149 270.5815  1.85519758 44308
1 40129U 14050B   21044.59804789 -.00000116  00000-0  00000+0 0  9995
2 40129  50.5509 350.8039 1648881 108.0319 270.5626  1.85519777 44284
1 40129U 14050B   21044.59804789 -.00000116  00000-0  00000-0 0  9996
2 40129  50.5509 350.8039 1648881 108.0319 270.5626  1.85519777 44318
1 40129U 14050B   21045.67605162 -.00000116  00000-0  00000-0 0  9990
2 40129  50.5505 350.7610 1648865 108.0661 270.5254  1.85519768 44339
1 40129U 14050B   21046.75405483 -.00000115  00000-0  00000+0 0  9992
2 40129  50.5502 350.7182 1648839 108.1006 270.4888  1.85519807 44320
1 40129U 14050B   21047.29305746 -.00000115  00000-0  00000-0 0  9994
2 40129  50.5500 350.6968 1648826 108.1179 270.4709  1.85519804 44369
1 40129U 14050B   21048.37105926 -.00000114  00000-0  00000-0 0  9991
2 40129  50.5496 350.6539 1648768 108.1532 270.4341  1.85519889 44382
1 40129U 14050B   21049.98806999 -.00000110  00000-0  00000+0 0  9992
2 40129  50.5490 350.5896 1648725 108.2049 270.3812  1.85519808 44381
